UNISAT-6                
1 40012U 14033C   26049.97358139  .00003676  00000+0  40355-3 0  9995
2 40012  97.7690 204.9372 0046803  98.1116 262.5414 14.87481218628588
DEIMOS-2                
1 40013U 14033D   26050.13550030  .00002199  00000+0  21505-3 0  9995
2 40013  97.6005 288.6757 0001782  56.9237 303.2153 14.93324550620102
BUGSAT-1 (TITA)         
1 40014U 14033E   26050.20314909  .00005429  00000+0  29831-3 0  9996
2 40014  98.0463 135.9772 0028125 221.6003 138.3087 15.14237801637971
SAUDISAT 4              
1 40016U 14033G   26049.96250806  .00000835  00000+0  11691-3 0  9995
2 40016  97.7374 200.3232 0046343  98.0440 262.6034 14.79349367628593
APRIZESAT 9             
1 40018U 14033J   26049.96504259  .00000873  00000+0  13611-3 0  9997
2 40018  97.8849 186.1996 0065542 219.5200 140.1220 14.74026113626149
BRITE-CA1 (TORONTO)     
1 40020U 14033L   26049.94115741  .00000950  00000+0  15116-3 0  9990
2 40020  97.9539 181.2002 0077770 295.8745  63.4459 14.72406542624819
DUCHIFAT-1              
1 40021U 14033M   26050.09011517  .00045174  00000+0  87683-3 0  9990
2 40021  98.0676  94.3594 0006848 136.0373 224.1421 15.47501134637393
NANOSATC-BR1            
1 40024U 14033Q   26050.05364633  .00015018  00000+0  56311-3 0  9997
2 40024  98.0855  72.2614 0002523 208.7423 151.3675 15.27357875635920
QB50P1                  
1 40025U 14033R   26049.96831139  .00008607  00000+0  45058-3 0  9998
2 40025  98.0996  52.9943 0007069 271.7520  88.2901 15.16080767635106
DTUSAT-2                
1 40030U 14033W   26049.94720630  .00007165  00000+0  40802-3 0  9995
2 40030  98.0825  40.3564 0006078 282.8338  77.2212 15.13150998634790
QB50P2                  
1 40032U 14033Y   26050.01893457  .00007189  00000+0  40784-3 0  9990
2 40032  98.0714  39.7341 0006482 203.8241 156.2690 15.13283007634784
PERSEUS-M1              
1 40039U 14033AF  26050.06971473  .00001688  00000+0  15912-3 0  9990
2 40039  97.9542 352.3872 0011090 337.8662  22.2078 14.95149832632985
POLYITAN-1              
1 40042U 14033AJ  26050.02399009  .00016046  00000+0  57708-3 0  9992
2 40042  98.1058  65.4488 0007365 185.2778 174.8384 15.28693841635519
TIGRISAT                
1 40043U 14033AK  26049.98858651  .00002338  00000+0  27674-3 0  9997
2 40043  97.7637 202.8672 0050982 102.3300 258.3629 14.84615742628083
AISAT                   
1 40054U 14034B   26050.15481905  .00010098  00000+0  69304-3 0  9993
2 40054  98.2465 314.1572 0008100 260.3784  99.6526 15.06188889629425
CANX-4                  
1 40055U 14034C   26049.59122292  .00001099  00000+0  14905-3 0  9999
2 40055  98.3305 280.4428 0013652  36.8391 323.3755 14.81008432626978
CANX-5                  
1 40056U 14034D   26050.06394063  .00001027  00000+0  13980-3 0  9994
2 40056  98.3308 280.9701 0013608  35.7024 324.5094 14.81025852617854
VELOX-I                 
1 40057U 14034E   26050.17373882  .00005571  00000+0  49436-3 0  9996
2 40057  98.2646 308.5323 0006875 308.8172  51.2434 14.96603765628947
GONETS-M 10             
1 40063U 14036C   26050.22810623 -.00000047  00000+0 -41081-3 0  9993
2 40063  82.5123  20.9316 0022851  41.2982 318.9821 12.42941523527594
METEOR-M 2              
1 40069U 14037A   26050.24070072  .00000133  00000+0  80055-4 0  9997
2 40069  98.4993  30.2339 0006445  28.9977 331.1558 14.21420587602563
DX1                     
1 40071U 14037C   26050.15155631  .00003087  00000+0  33030-3 0  9996
2 40071  98.3733   4.8305 0006034 305.1261  54.9388 14.89527752628539
UKUBE-1                 
1 40074U 14037F   26049.94953302  .00008067  00000+0  48268-3 0  9997
2 40074  98.4208  41.0152 0001945 128.2918 231.8484 15.11349241630685
GAOFEN-2                
1 40118U 14049A   26050.19756141  .00000791  00000+0  10974-3 0  9999
2 40118  98.0266 114.4512 0006055 253.3304 106.7243 14.80740955621770
BRITE-PL2 (HEWELIUSZ)   
1 40119U 14049B   26049.78752405  .00002776  00000+0  26494-3 0  9991
2 40119  97.8980 161.0111 0015213 138.7886 221.4485 14.94074683623768
CBERS 4                 
1 40336U 14079A   26050.17163425  .00000013  00000+0  19037-4 0  9996
2 40336  98.3183 110.7980 0000677  48.9587 311.1657 14.35504904587028
SMAP                    
1 40376U 15003A   26050.13063945  .00000470  00000+0  10025-3 0  9994
2 40376  98.1308  58.8801 0000908 105.6511 254.4791 14.63312834590356
GONETS-M 11             
1 40552U 15020A   26050.15945692  .00000138  00000+0  92607-3 0  9996
2 40552  82.4837 104.5474 0014934 257.8825 102.0581 12.42872188494077
GONETS-M 12             
1 40553U 15020B   26050.13437155  .00000230  00000+0  15880-2 0  9995
2 40553  82.4873 105.6560 0014109 241.2096 118.7567 12.42888393494069
GONETS-M 13             
1 40554U 15020C   26050.18635744  .00000112  00000+0  73894-3 0  9994
2 40554  82.4831 104.2729 0012969 224.5586 135.4451 12.42866591494048
DMC3-FM1                
1 40715U 15032A   26050.13851606  .00001315  00000+0  15798-3 0  9993
2 40715  97.6639 279.8251 0007134  82.1540 278.0485 14.85583935572388
DMC3-FM2                
1 40716U 15032B   26050.16089656  .00000269  00000+0  37097-4 0  9999
2 40716  97.6696 281.3389 0007588  86.3710 273.8374 14.85583599572386
DMC3-FM3                
1 40717U 15032C   26050.18364501  .00000585  00000+0  73668-4 0  9992
2 40717  97.6748 283.0378 0006889  87.0411 273.1593 14.85547403572392
CARBONITE 1 (CBNT-1)    
1 40718U 15032D   26050.20366733  .00002293  00000+0  28711-3 0  9991
2 40718  97.6435 233.2634 0013903 326.5178  33.5156 14.83125354571852
DEORBITSAIL             
1 40719U 15032E   26049.85023950  .00007215  00000+0  55554-3 0  9996
2 40719  97.6048 268.9764 0010365 277.3763  82.6283 15.01912826573479
2015-049G               
1 40905U 15049G   26050.17829847  .00027920  00000+0  37620-3 0  9996
2 40905  97.4749  87.8297 0004241 297.3573  62.7250 15.57795918578029
LILACSAT-2              
1 40908U 15049K   26050.15226750  .00014432  00000+0  28453-3 0  9999
2 40908  97.4833  82.7409 0006358 333.8369  26.2559 15.47289677577479
COSMOS 2507 (RODNIK-S *)
1 40920U 15050A   26050.22710543  .00000116  00000+0  76987-3 0  9990
2 40920  82.4966 153.1094 0009042 240.9486 119.0688 12.42922735472208
COSMOS 2508 (RODNIK-S *)
1 40921U 15050B   26050.18088817  .00000161  00000+0  10891-2 0  9999
2 40921  82.4919 151.6892 0012953 279.4912  80.4703 12.42909800472186
COSMOS 2509 (RODNIK-S *)
1 40922U 15050C   26050.19916495  .00000135  00000+0  90410-3 0  9990
2 40922  82.4925 151.7695 0013292 299.6561  60.3194 12.42929918472225
LQSAT                   
1 40958U 15057A   26050.23532015  .00001038  00000+0  15536-3 0  9992
2 40958  97.6640  49.4919 0015821 298.7006  61.2614 14.76601835557902
LINGQIAO VIDEO A        
1 40959U 15057B   26050.23656231  .00001409  00000+0  20543-3 0  9996
2 40959  97.6590  50.8947 0015452 295.9993  63.9627 14.77202804557994
LINGQIAO VIDEO B        
1 40960U 15057C   26050.22119874  .00000980  00000+0  14466-3 0  9994
2 40960  97.6561  52.0719 0015653 296.2857  63.6745 14.77290543558032
JILIN-1                 
1 40961U 15057D   26050.15164889  .00000709  00000+0  10497-3 0  9992
2 40961  97.6509  55.4003 0015577 289.6593  70.2937 14.77956407558176
FOX-1A (AO-85)          
1 40967U 15058D   26050.07103622  .00002758  00000+0  25741-3 0  9992
2 40967  64.7748 285.8415 0129808 103.3542 258.2080 14.90191305 95960
SINOD-D 1               
1 40968U 15058E   26050.04237663  .00003989  00000+0  33219-3 0  9999
2 40968  64.7740 268.6028 0118214 100.8844 260.5599 14.94816947 98995
ELEKTRO-L 2             
1 41105U 15074A   26049.88950197 -.00000110  00000+0  00000+0 0  9997
2 41105   6.3945  71.9891 0003225 235.6716 146.9249  1.00271859 37320
DAMPE                   
1 41173U 15078A   26050.16655334  .00001614  00000+0  57368-4 0  9997
2 41173  97.4568  55.0731 0013292 129.0758 231.1667 15.30427811566495
ORBCOMM FM114           
1 41179U 15081A   26049.76416860  .00000595  00000+0  16252-3 0  9993
2 41179  47.0033 201.8297 0001857   2.6065 357.4831 14.58695541540468
ORBCOMM FM110           
1 41182U 15081D   26049.41089874  .00000792  00000+0  20451-3 0  9995
2 41182  47.0004 202.9761 0003434 246.1058 113.9468 14.58689873540280
ORBCOMM FM112           
1 41184U 15081F   26050.13339567  .00000751  00000+0  19578-3 0  9998
2 41184  46.9984 108.3813 0001660 344.4419  15.6416 14.58693948541714
ORBCOMM FM113           
1 41185U 15081G   26050.17911743  .00000699  00000+0  18457-3 0  9991
2 41185  47.0003 108.5307 0001095 347.6978  12.3881 14.58696507541709
ORBCOMM FM108           
1 41187U 15081J   26049.31989049  .00000810  00000+0  20824-3 0  9997
2 41187  47.0060  24.1249 0002899 349.3032  10.7791 14.58696970542724
ORBCOMM FM117           
1 41188U 15081K   26049.28534542  .00000808  00000+0  20783-3 0  9999
2 41188  47.0021  22.9605 0003081 358.1616   1.9258 14.58690166542769
ORBCOMM FM116           
1 41189U 15081L   26050.15649696  .00000771  00000+0  20003-3 0  9999
2 41189  47.0018 108.6247 0002688 247.0220 113.0382 14.58687226541708
CHUBUSAT-2              
1 41338U 16012B   26050.15950412  .00006219  00000+0  28056-3 0  9990
2 41338  30.9996  15.1724 0009370 309.7706  50.2109 15.19454763550448
CHUBUSAT-3              
1 41339U 16012C   26050.17899252  .00005618  00000+0  26872-3 0  9993
2 41339  31.0064  21.9473 0009626 300.9437  59.0257 15.17382800550251
HORYU-4                 
1 41340U 16012D   26049.47780329  .00067536  00000+0  81223-3 0  9998
2 41340  30.9907 202.0219 0000816 244.8589 115.1978 15.59504235552107
ZIYUAN 3-02 (ZY 3-02)   
1 41556U 16033A   26050.19276347  .00005836  00000+0  26370-3 0  9998
2 41556  97.3934 128.1807 0012491   8.4950 351.6495 15.21265398540046
CARTOSAT-2C             
1 41599U 16040A   26050.16349712  .00003277  00000+0  15842-3 0  9996
2 41599  97.4648 111.6684 0009813 183.7922 176.3240 15.19289306535794
